STARLINK-2022           
1 47643U 21012Z   23352.53356617  .00000657  00000+0  62995-4 0  9993
2 47643  53.0548  97.5262 0000904  99.6705 260.4386 15.06391202157855
